start=new Date('2021-09-25T00:00:00.000Z').valueOf();
sats=[{"OBJECT_ID":"2021-018AG","MEAN_MOTION_DDOT":"0.0000000000000","INCLINATION":"53.0558","SITE":"AFETR","TIME_SYSTEM":"UTC","RCS_SIZE":"LARGE","BSTAR":"0.00003529300000","GP_ID":"185430206","PERIAPSIS":"546.489","SEMIMAJOR_AXIS":"6925.350","ECCENTRICITY":"0.00010470","TLE_LINE2":"2 47817  53.0558 355.3621 0001047 104.1164 255.9941 15.06399673 31366","REV_AT_EPOCH":"3136","PERIOD":"95.592","TLE_LINE1":"1 47817U 21018AG  21267.71982942  .00000244  00000-0  35293-4 0  9995","CENTER_NAME":"EARTH","EPOCH":"2021-09-24T17:16:33.261888","OBJECT_NAME":"STARLINK-2400","MEAN_ELEMENT_THEORY":"SGP4","ELEMENT_SET_NO":"999","DECAY_DATE":null,"MEAN_MOTION":"15.06399673","RA_OF_ASC_NODE":"355.3621","REF_FRAME":"TEME","LAUNCH_DATE":"2021-03-11","MEAN_MOTION_DOT":"0.00000244","APOAPSIS":"547.940","ARG_OF_PERICENTER":"104.1164","OBJECT_TYPE":"PAYLOAD","CLASSIFICATION_TYPE":"U","FILE":"3126800","MEAN_ANOMALY":"255.9941","COUNTRY_CODE":"US","EPHEMERIS_TYPE":"0","NORAD_CAT_ID":"47817"},{"NORAD_CAT_ID":"47818","EPHEMERIS_TYPE":"0","MEAN_ANOMALY":"260.4439","FILE":"3126800","COUNTRY_CODE":"US","ARG_OF_PERICENTER":"99.6683","OBJECT_TYPE":"PAYLOAD","CLASSIFICATION_TYPE":"U","APOAPSIS":"548.017","LAUNCH_DATE":"2021-03-11","MEAN_MOTION_DOT":"0.00001650","RA_OF_ASC_NODE":"0.2427","REF_FRAME":"TEME","MEAN_ELEMENT_THEORY":"SGP4","ELEMENT_SET_NO":"999","DECAY_DATE":null,"MEAN_MOTION":"15.06404641","OBJECT_NAME":"STARLINK-2401","EPOCH":"2021-09-24T17:55:42.367296","CENTER_NAME":"EARTH","PERIOD":"95.592","TLE_LINE1":"1 47818U 21018AH  21267.74701814  .00001650  00000-0  12960-3 0  9993","REV_AT_EPOCH":"3130","TLE_LINE2":"2 47818  53.0570   0.2427 0001180  99.6683 260.4439 15.06404641 31302","SEMIMAJOR_AXIS":"6925.334","PERIAPSIS":"546.382","ECCENTRICITY":"0.00011800","RCS_SIZE":"LARGE","SITE":"AFETR","TIME_SYSTEM":"UTC","BSTAR":"0.00012960000000","GP_ID":"185429959","OBJECT_ID":"2021-018AH","INCLINATION":"53.0570","MEAN_MOTION_DDOT":"0.0000000000000"},{"REV_AT_EPOCH":"3143","EPOCH":"2021-09-24T17:21:51.112800","CENTER_NAME":"EARTH","TLE_LINE1":"1 47819U 21018AJ  21267.72350825 -.00001505  00000-0 -82199-4 0  9997","PERIOD":"95.592","SITE":"AFETR","RCS_SIZE":"MEDIUM","TIME_SYSTEM":"UTC","GP_ID":"185428708","BSTAR":"-0.00008219900000","INCLINATION":"53.0587","MEAN_MOTION_DDOT":"0.0000000000000","OBJECT_ID":"2021-018AJ","TLE_LINE2":"2 47819  53.0587 355.3525 0001004  97.5673 262.5430 15.06394921 31432","SEMIMAJOR_AXIS":"6925.364","PERIAPSIS":"546.534","ECCENTRICITY":"0.00010040","ARG_OF_PERICENTER":"97.5673","OBJECT_TYPE":"PAYLOAD","CLASSIFICATION_TYPE":"U","APOAPSIS":"547.924","EPHEMERIS_TYPE":"0","NORAD_CAT_ID":"47819","MEAN_ANOMALY":"262.5430","FILE":"3126800","COUNTRY_CODE":"US","DECAY_DATE":null,"ELEMENT_SET_NO":"999","MEAN_ELEMENT_THEORY":"SGP4","MEAN_MOTION":"15.06394921","OBJECT_NAME":"STARLINK-2402","LAUNCH_DATE":"2021-03-11","MEAN_MOTION_DOT":"-0.00001505","RA_OF_ASC_NODE":"355.3525","REF_FRAME":"TEME"},{"EPHEMERIS_TYPE":"0","NORAD_CAT_ID":"47820","MEAN_ANOMALY":"267.5511","FILE":"3126800","COUNTRY_CODE":"US","CLASSIFICATION_TYPE":"U","OBJECT_TYPE":"PAYLOAD","ARG_OF_PERICENTER":"92.5617","APOAPSIS":"548.072","MEAN_MOTION_DOT":"-0.00004750","LAUNCH_DATE":"2021-03-11","REF_FRAME":"TEME","RA_OF_ASC_NODE":"5.1405","MEAN_MOTION":"15.06393029","MEAN_ELEMENT_THEORY":"SGP4","DECAY_DATE":null,"ELEMENT_SET_NO":"999","OBJECT_NAME":"STARLINK-2403","EPOCH":"2021-09-24T18:29:30.144192","CENTER_NAME":"EARTH","PERIOD":"95.593","TLE_LINE1":"1 47820U 21018AK  21267.77048778 -.00004750  00000-0 -30028-3 0  9993","REV_AT_EPOCH":"3129","TLE_LINE2":"2 47820  53.0564   5.1405 0001209  92.5617 267.5511 15.06393029 31293","ECCENTRICITY":"0.00012090","SEMIMAJOR_AXIS":"6925.370","PERIAPSIS":"546.398","BSTAR":"-0.00030028000000","GP_ID":"185428958","RCS_SIZE":"LARGE","SITE":"AFETR","TIME_SYSTEM":"UTC","OBJECT_ID":"2021-018AK","INCLINATION":"53.0564","MEAN_MOTION_DDOT":"0.0000000000000"},{"APOAPSIS":"547.872","ARG_OF_PERICENTER":"94.8619","CLASSIFICATION_TYPE":"U","OBJECT_TYPE":"PAYLOAD","MEAN_ANOMALY":"265.2477","FILE":"3126800","COUNTRY_CODE":"US","NORAD_CAT_ID":"47821","EPHEMERIS_TYPE":"0","OBJECT_NAME":"STARLINK-2406","MEAN_ELEMENT_THEORY":"SGP4","ELEMENT_SET_NO":"999","DECAY_DATE":null,"MEAN_MOTION":"15.06396710","RA_OF_ASC_NODE":"355.2431","REF_FRAME":"TEME","LAUNCH_DATE":"2021-03-11","MEAN_MOTION_DOT":"0.00000595","REV_AT_EPOCH":"3137","PERIOD":"95.592","TLE_LINE1":"1 47821U 21018AL  21267.74836515  .00000595  00000-0  58840-4 0  9999","EPOCH":"2021-09-24T17:57:38.748960","CENTER_NAME":"EARTH","OBJECT_ID":"2021-018AL","INCLINATION":"53.0576","MEAN_MOTION_DDOT":"0.0000000000000","RCS_SIZE":"LARGE","SITE":"AFETR","TIME_SYSTEM":"UTC","BSTAR":"0.00005884000000","GP_ID":"185429707","PERIAPSIS":"546.575","SEMIMAJOR_AXIS":"6925.359","ECCENTRICITY":"0.00009360","TLE_LINE2":"2 47821  53.0576 355.2431 0000936  94.8619 265.2477 15.06396710 31373"},{"REV_AT_EPOCH":"3126","PERIOD":"95.592","TLE_LINE1":"1 47822U 21018AM  21267.89213700  .00000259  00000-0  36259-4 0  9998","CENTER_NAME":"EARTH","EPOCH":"2021-09-24T21:24:40.636800","OBJECT_ID":"2021-018AM","INCLINATION":"53.0569","MEAN_MOTION_DDOT":"0.0000000000000","BSTAR":"0.00003625900000","GP_ID":"185430459","RCS_SIZE":"LARGE","SITE":"AFETR","TIME_SYSTEM":"UTC","ECCENTRICITY":"0.00011940","PERIAPSIS":"546.381","SEMIMAJOR_AXIS":"6925.343","TLE_LINE2":"2 47822  53.0569   4.5875 0001194  97.1692 262.9433 15.06401878 31262","APOAPSIS":"548.035","CLASSIFICATION_TYPE":"U","OBJECT_TYPE":"PAYLOAD","ARG_OF_PERICENTER":"97.1692","COUNTRY_CODE":"US","FILE":"3126800","MEAN_ANOMALY":"262.9433","NORAD_CAT_ID":"47822","EPHEMERIS_TYPE":"0","OBJECT_NAME":"STARLINK-2407","MEAN_MOTION":"15.06401878","MEAN_ELEMENT_THEORY":"SGP4","ELEMENT_SET_NO":"999","DECAY_DATE":null,"REF_FRAME":"TEME","RA_OF_ASC_NODE":"4.5875","MEAN_MOTION_DOT":"0.00000259","LAUNCH_DATE":"2021-03-11"},{"EPHEMERIS_TYPE":"0","NORAD_CAT_ID":"47823","MEAN_ANOMALY":"270.5946","FILE":"3126800","COUNTRY_CODE":"US","ARG_OF_PERICENTER":"89.5181","CLASSIFICATION_TYPE":"U","OBJECT_TYPE":"PAYLOAD","APOAPSIS":"548.021","LAUNCH_DATE":"2021-03-11","MEAN_MOTION_DOT":"0.00002341","RA_OF_ASC_NODE":"356.3098","REF_FRAME":"TEME","MEAN_ELEMENT_THEORY":"SGP4","ELEMENT_SET_NO":"999","DECAY_DATE":null,"MEAN_MOTION":"15.06409075","OBJECT_NAME":"STARLINK-2408","EPOCH":"2021-09-24T12:14:00.449088","CENTER_NAME":"EARTH","PERIOD":"95.592","TLE_LINE1":"1 47823U 21018AN  21267.50972742  .00002341  00000-0  17595-3 0  9990","REV_AT_EPOCH":"3134","TLE_LINE2":"2 47823  53.0572 356.3098 0001206  89.5181 270.5946 15.06409075 31344","SEMIMAJOR_AXIS":"6925.321","PERIAPSIS":"546.351","ECCENTRICITY":"0.00012060","RCS_SIZE":"LARGE","SITE":"AFETR","TIME_SYSTEM":"UTC","BSTAR":"0.00017595000000","GP_ID":"185429208","OBJECT_ID":"2021-018AN","MEAN_MOTION_DDOT":"0.0000000000000","INCLINATION":"53.0572"},{"EPHEMERIS_TYPE":"0","NORAD_CAT_ID":"47824","FILE":"3126800","COUNTRY_CODE":"US","MEAN_ANOMALY":"274.0277","ARG_OF_PERICENTER":"86.0847","OBJECT_TYPE":"PAYLOAD","CLASSIFICATION_TYPE":"U","APOAPSIS":"548.065","LAUNCH_DATE":"2021-03-11","MEAN_MOTION_DOT":"-0.00001511","RA_OF_ASC_NODE":"355.1847","REF_FRAME":"TEME","ELEMENT_SET_NO":"999","DECAY_DATE":null,"MEAN_ELEMENT_THEORY":"SGP4","MEAN_MOTION":"15.06389263","OBJECT_NAME":"STARLINK-2409","EPOCH":"2021-09-24T18:20:15.101952","CENTER_NAME":"EARTH","TLE_LINE1":"1 47824U 21018AP  21267.76406368 -.00001511  00000-0 -82624-4 0  9991","PERIOD":"95.593","REV_AT_EPOCH":"3137","TLE_LINE2":"2 47824  53.0553 355.1847 0001182  86.0847 274.0277 15.06389263 31372","SEMIMAJOR_AXIS":"6925.381","PERIAPSIS":"546.428","ECCENTRICITY":"0.00011820","SITE":"AFETR","TIME_SYSTEM":"UTC","RCS_SIZE":"LARGE","GP_ID":"185429458","BSTAR":"-0.00008262400000","MEAN_MOTION_DDOT":"0.0000000000000","INCLINATION":"53.0553","OBJECT_ID":"2021-018AP"},{"MEAN_MOTION_DDOT":"0.0000000000000","INCLINATION":"53.0557","OBJECT_ID":"2021-018AQ","GP_ID":"185430207","BSTAR":"-0.00008038200000","SITE":"AFETR","RCS_SIZE":"LARGE","TIME_SYSTEM":"UTC","ECCENTRICITY":"0.00011940","PERIAPSIS":"546.411","SEMIMAJOR_AXIS":"6925.372","TLE_LINE2":"2 47825  53.0557 355.3712 0001194 108.2283 251.8836 15.06392213 31377","REV_AT_EPOCH":"3137","TLE_LINE1":"1 47825U 21018AQ  21267.71614025 -.00001478  00000-0 -80382-4 0  9999","PERIOD":"95.593","CENTER_NAME":"EARTH","EPOCH":"2021-09-24T17:11:14.517600","OBJECT_NAME":"STARLINK-2410","MEAN_MOTION":"15.06392213","ELEMENT_SET_NO":"999","DECAY_DATE":null,"MEAN_ELEMENT_THEORY":"SGP4","REF_FRAME":"TEME","RA_OF_ASC_NODE":"355.3712","MEAN_MOTION_DOT":"-0.00001478","LAUNCH_DATE":"2021-03-11","APOAPSIS":"548.064","OBJECT_TYPE":"PAYLOAD","CLASSIFICATION_TYPE":"U","ARG_OF_PERICENTER":"108.2283","MEAN_ANOMALY":"251.8836","FILE":"3126800","COUNTRY_CODE":"US","NORAD_CAT_ID":"47825","EPHEMERIS_TYPE":"0"},{"APOAPSIS":"548.005","ARG_OF_PERICENTER":"85.9615","CLASSIFICATION_TYPE":"U","OBJECT_TYPE":"PAYLOAD","COUNTRY_CODE":"US","FILE":"3126800","MEAN_ANOMALY":"274.1510","EPHEMERIS_TYPE":"0","NORAD_CAT_ID":"47826","OBJECT_NAME":"STARLINK-2411","MEAN_ELEMENT_THEORY":"SGP4","ELEMENT_SET_NO":"999","DECAY_DATE":null,"MEAN_MOTION":"15.06411605","RA_OF_ASC_NODE":"355.4017","REF_FRAME":"TEME","LAUNCH_DATE":"2021-03-11","MEAN_MOTION_DOT":"0.00002156","REV_AT_EPOCH":"3137","PERIOD":"95.591","TLE_LINE1":"1 47826U 21018AR  21267.71244928  .00002156  00000-0  16355-3 0  9991","CENTER_NAME":"EARTH","EPOCH":"2021-09-24T17:05:55.617792","OBJECT_ID":"2021-018AR","INCLINATION":"53.0572","MEAN_MOTION_DDOT":"0.0000000000000","RCS_SIZE":"LARGE","SITE":"AFETR","TIME_SYSTEM":"UTC","BSTAR":"0.00016355000000","GP_ID":"185429960","PERIAPSIS":"546.351","SEMIMAJOR_AXIS":"6925.313","ECCENTRICITY":"0.00011940","TLE_LINE2":"2 47826  53.0572 355.4017 0001194  85.9615 274.1510 15.06411605 31378"}];
